{
  "type": "FeatureCollection",
  "features": [
    {
      "type": "Feature",
      "properties": {
        "LocationID": 1,
        "Zone": "Newark Airport",
        "Borough": "EWR",
        "service_zone": "EWR"
      },
      "geometry": {
        "type": "Point",
        "coordinates": [
          -74.006,
          40.7128
        ]
      }
    },
    {
      "type": "Feature",
      "properties": {
        "LocationID": 2,
        "Zone": "Jamaica Bay",
        "Borough": "Queens",
        "service_zone": "Boro Zone"
      },
      "geometry": {
        "type": "Point",
        "coordinates": [
          -74.006,
          40.7128
        ]
      }
    },
    {
      "type": "Feature",
      "properties": {
        "LocationID": 3,
        "Zone": "Allerton/Pelham Gardens",
        "Borough": "Bronx",
        "service_zone": "Boro Zone"
      },
      "geometry": {
        "type": "Point",
        "coordinates": [
          -74.006,
          40.7128
        ]
      }
    },
    {
      "type": "Feature",
      "properties": {
        "LocationID": 4,
        "Zone": "Alphabet City",
        "Borough": "Manhattan",
        "service_zone": "Yellow Zone"
      },
      "geometry": {
        "type": "Point",
        "coordinates": [
          -74.006,
          40.7128
        ]
      }
    },
    {
      "type": "Feature",
      "properties": {
        "LocationID": 5,
        "Zone": "Arden Heights",
        "Borough": "Staten Island",
        "service_zone": "Boro Zone"
      },
      "geometry": {
        "type": "Point",
        "coordinates": [
          -74.006,
          40.7128
        ]
      }
    },
    {
      "type": "Feature",
      "properties": {
        "LocationID": 6,
        "Zone": "Arrochar/Fort Wadsworth",
        "Borough": "Staten Island",
        "service_zone": "Boro Zone"
      },
      "geometry": {
        "type": "Point",
        "coordinates": [
          -74.006,
          40.7128
        ]
      }
    },
    {
      "type": "Feature",
      "properties": {
        "LocationID": 7,
        "Zone": "Astoria",
        "Borough": "Queens",
        "service_zone": "Boro Zone"
      },
      "geometry": {
        "type": "Point",
        "coordinates": [
          -74.006,
          40.7128
        ]
      }
    },
    {
      "type": "Feature",
      "properties": {
        "LocationID": 8,
        "Zone": "Astoria Park",
        "Borough": "Queens",
        "service_zone": "Boro Zone"
      },
      "geometry": {
        "type": "Point",
        "coordinates": [
          -74.006,
          40.7128
        ]
      }
    },
    {
      "type": "Feature",
      "properties": {
        "LocationID": 9,
        "Zone": "Auburndale",
        "Borough": "Queens",
        "service_zone": "Boro Zone"
      },
      "geometry": {
        "type": "Point",
        "coordinates": [
          -74.006,
          40.7128
        ]
      }
    },
    {
      "type": "Feature",
      "properties": {
        "LocationID": 10,
        "Zone": "Baisley Park",
        "Borough": "Queens",
        "service_zone": "Boro Zone"
      },
      "geometry": {
        "type": "Point",
        "coordinates": [
          -74.006,
          40.7128
        ]
      }
    },
    {
      "type": "Feature",
      "properties": {
        "LocationID": 11,
        "Zone": "Bath Beach",
        "Borough": "Brooklyn",
        "service_zone": "Boro Zone"
      },
      "geometry": {
        "type": "Point",
        "coordinates": [
          -74.006,
          40.7128
        ]
      }
    },
    {
      "type": "Feature",
      "properties": {
        "LocationID": 12,
        "Zone": "Battery Park",
        "Borough": "Manhattan",
        "service_zone": "Yellow Zone"
      },
      "geometry": {
        "type": "Point",
        "coordinates": [
          -74.006,
          40.7128
        ]
      }
    },
    {
      "type": "Feature",
      "properties": {
        "LocationID": 13,
        "Zone": "Battery Park City",
        "Borough": "Manhattan",
        "service_zone": "Yellow Zone"
      },
      "geometry": {
        "type": "Point",
        "coordinates": [
          -74.006,
          40.7128
        ]
      }
    },
    {
      "type": "Feature",
      "properties": {
        "LocationID": 14,
        "Zone": "Bay Ridge",
        "Borough": "Brooklyn",
        "service_zone": "Boro Zone"
      },
      "geometry": {
        "type": "Point",
        "coordinates": [
          -74.006,
          40.7128
        ]
      }
    },
    {
      "type": "Feature",
      "properties": {
        "LocationID": 15,
        "Zone": "Bay Terrace/Fort Totten",
        "Borough": "Queens",
        "service_zone": "Boro Zone"
      },
      "geometry": {
        "type": "Point",
        "coordinates": [
          -74.006,
          40.7128
        ]
      }
    },
    {
      "type": "Feature",
      "properties": {
        "LocationID": 16,
        "Zone": "Bayside",
        "Borough": "Queens",
        "service_zone": "Boro Zone"
      },
      "geometry": {
        "type": "Point",
        "coordinates": [
          -74.006,
          40.7128
        ]
      }
    },
    {
      "type": "Feature",
      "properties": {
        "LocationID": 17,
        "Zone": "Bedford",
        "Borough": "Brooklyn",
        "service_zone": "Boro Zone"
      },
      "geometry": {
        "type": "Point",
        "coordinates": [
          -74.006,
          40.7128
        ]
      }
    },
    {
      "type": "Feature",
      "properties": {
        "LocationID": 18,
        "Zone": "Bedford Park",
        "Borough": "Bronx",
        "service_zone": "Boro Zone"
      },
      "geometry": {
        "type": "Point",
        "coordinates": [
          -74.006,
          40.7128
        ]
      }
    },
    {
      "type": "Feature",
      "properties": {
        "LocationID": 19,
        "Zone": "Bellerose",
        "Borough": "Queens",
        "service_zone": "Boro Zone"
      },
      "geometry": {
        "type": "Point",
        "coordinates": [
          -74.006,
          40.7128
        ]
      }
    },
    {
      "type": "Feature",
      "properties": {
        "LocationID": 20,
        "Zone": "Belmont",
        "Borough": "Bronx",
        "service_zone": "Boro Zone"
      },
      "geometry": {
        "type": "Point",
        "coordinates": [
          -74.006,
          40.7128
        ]
      }
    },
    {
      "type": "Feature",
      "properties": {
        "LocationID": 21,
        "Zone": "Bensonhurst East",
        "Borough": "Brooklyn",
        "service_zone": "Boro Zone"
      },
      "geometry": {
        "type": "Point",
        "coordinates": [
          -74.006,
          40.7128
        ]
      }
    },
    {
      "type": "Feature",
      "properties": {
        "LocationID": 22,
        "Zone": "Bensonhurst West",
        "Borough": "Brooklyn",
        "service_zone": "Boro Zone"
      },
      "geometry": {
        "type": "Point",
        "coordinates": [
          -74.006,
          40.7128
        ]
      }
    },
    {
      "type": "Feature",
      "properties": {
        "LocationID": 23,
        "Zone": "Bloomfield/Emerson Hill",
        "Borough": "Staten Island",
        "service_zone": "Boro Zone"
      },
      "geometry": {
        "type": "Point",
        "coordinates": [
          -74.006,
          40.7128
        ]
      }
    },
    {
      "type": "Feature",
      "properties": {
        "LocationID": 24,
        "Zone": "Bloomingdale",
        "Borough": "Manhattan",
        "service_zone": "Yellow Zone"
      },
      "geometry": {
        "type": "Point",
        "coordinates": [
          -74.006,
          40.7128
        ]
      }
    },
    {
      "type": "Feature",
      "properties": {
        "LocationID": 25,
        "Zone": "Boerum Hill",
        "Borough": "Brooklyn",
        "service_zone": "Boro Zone"
      },
      "geometry": {
        "type": "Point",
        "coordinates": [
          -74.006,
          40.7128
        ]
      }
    },
    {
      "type": "Feature",
      "properties": {
        "LocationID": 26,
        "Zone": "Borough Park",
        "Borough": "Brooklyn",
        "service_zone": "Boro Zone"
      },
      "geometry": {
        "type": "Point",
        "coordinates": [
          -74.006,
          40.7128
        ]
      }
    },
    {
      "type": "Feature",
      "properties": {
        "LocationID": 27,
        "Zone": "Breezy Point/Fort Tilden/Riis Beach",
        "Borough": "Queens",
        "service_zone": "Boro Zone"
      },
      "geometry": {
        "type": "Point",
        "coordinates": [
          -74.006,
          40.7128
        ]
      }
    },
    {
      "type": "Feature",
      "properties": {
        "LocationID": 28,
        "Zone": "Briarwood/Jamaica Hills",
        "Borough": "Queens",
        "service_zone": "Boro Zone"
      },
      "geometry": {
        "type": "Point",
        "coordinates": [
          -74.006,
          40.7128
        ]
      }
    },
    {
      "type": "Feature",
      "properties": {
        "LocationID": 29,
        "Zone": "Brighton Beach",
        "Borough": "Brooklyn",
        "service_zone": "Boro Zone"
      },
      "geometry": {
        "type": "Point",
        "coordinates": [
          -74.006,
          40.7128
        ]
      }
    },
    {
      "type": "Feature",
      "properties": {
        "LocationID": 30,
        "Zone": "Broad Channel",
        "Borough": "Queens",
        "service_zone": "Boro Zone"
      },
      "geometry": {
        "type": "Point",
        "coordinates": [
          -74.006,
          40.7128
        ]
      }
    },
    {
      "type": "Feature",
      "properties": {
        "LocationID": 31,
        "Zone": "Bronx Park",
        "Borough": "Bronx",
        "service_zone": "Boro Zone"
      },
      "geometry": {
        "type": "Point",
        "coordinates": [
          -74.006,
          40.7128
        ]
      }
    },
    {
      "type": "Feature",
      "properties": {
        "LocationID": 32,
        "Zone": "Bronxdale",
        "Borough": "Bronx",
        "service_zone": "Boro Zone"
      },
      "geometry": {
        "type": "Point",
        "coordinates": [
          -74.006,
          40.7128
        ]
      }
    },
    {
      "type": "Feature",
      "properties": {
        "LocationID": 33,
        "Zone": "Brooklyn Heights",
        "Borough": "Brooklyn",
        "service_zone": "Boro Zone"
      },
      "geometry": {
        "type": "Point",
        "coordinates": [
          -74.006,
          40.7128
        ]
      }
    },
    {
      "type": "Feature",
      "properties": {
        "LocationID": 34,
        "Zone": "Brooklyn Navy Yard",
        "Borough": "Brooklyn",
        "service_zone": "Boro Zone"
      },
      "geometry": {
        "type": "Point",
        "coordinates": [
          -74.006,
          40.7128
        ]
      }
    },
    {
      "type": "Feature",
      "properties": {
        "LocationID": 35,
        "Zone": "Brownsville",
        "Borough": "Brooklyn",
        "service_zone": "Boro Zone"
      },
      "geometry": {
        "type": "Point",
        "coordinates": [
          -74.006,
          40.7128
        ]
      }
    },
    {
      "type": "Feature",
      "properties": {
        "LocationID": 36,
        "Zone": "Bushwick North",
        "Borough": "Brooklyn",
        "service_zone": "Boro Zone"
      },
      "geometry": {
        "type": "Point",
        "coordinates": [
          -74.006,
          40.7128
        ]
      }
    },
    {
      "type": "Feature",
      "properties": {
        "LocationID": 37,
        "Zone": "Bushwick South",
        "Borough": "Brooklyn",
        "service_zone": "Boro Zone"
      },
      "geometry": {
        "type": "Point",
        "coordinates": [
          -74.006,
          40.7128
        ]
      }
    },
    {
      "type": "Feature",
      "properties": {
        "LocationID": 38,
        "Zone": "Cambria Heights",
        "Borough": "Queens",
        "service_zone": "Boro Zone"
      },
      "geometry": {
        "type": "Point",
        "coordinates": [
          -74.006,
          40.7128
        ]
      }
    },
    {
      "type": "Feature",
      "properties": {
        "LocationID": 39,
        "Zone": "Canarsie",
        "Borough": "Brooklyn",
        "service_zone": "Boro Zone"
      },
      "geometry": {
        "type": "Point",
        "coordinates": [
          -74.006,
          40.7128
        ]
      }
    },
    {
      "type": "Feature",
      "properties": {
        "LocationID": 40,
        "Zone": "Carroll Gardens",
        "Borough": "Brooklyn",
        "service_zone": "Boro Zone"
      },
      "geometry": {
        "type": "Point",
        "coordinates": [
          -74.006,
          40.7128
        ]
      }
    },
    {
      "type": "Feature",
      "properties": {
        "LocationID": 41,
        "Zone": "Central Harlem",
        "Borough": "Manhattan",
        "service_zone": "Boro Zone"
      },
      "geometry": {
        "type": "Point",
        "coordinates": [
          -74.006,
          40.7128
        ]
      }
    },
    {
      "type": "Feature",
      "properties": {
        "LocationID": 42,
        "Zone": "Central Harlem North",
        "Borough": "Manhattan",
        "service_zone": "Boro Zone"
      },
      "geometry": {
        "type": "Point",
        "coordinates": [
          -74.006,
          40.7128
        ]
      }
    },
    {
      "type": "Feature",
      "properties": {
        "LocationID": 43,
        "Zone": "Central Park",
        "Borough": "Manhattan",
        "service_zone": "Yellow Zone"
      },
      "geometry": {
        "type": "Point",
        "coordinates": [
          -74.006,
          40.7128
        ]
      }
    },
    {
      "type": "Feature",
      "properties": {
        "LocationID": 44,
        "Zone": "Charleston/Tottenville",
        "Borough": "Staten Island",
        "service_zone": "Boro Zone"
      },
      "geometry": {
        "type": "Point",
        "coordinates": [
          -74.006,
          40.7128
        ]
      }
    },
    {
      "type": "Feature",
      "properties": {
        "LocationID": 45,
        "Zone": "Chinatown",
        "Borough": "Manhattan",
        "service_zone": "Yellow Zone"
      },
      "geometry": {
        "type": "Point",
        "coordinates": [
          -74.006,
          40.7128
        ]
      }
    },
    {
      "type": "Feature",
      "properties": {
        "LocationID": 46,
        "Zone": "City Island",
        "Borough": "Bronx",
        "service_zone": "Boro Zone"
      },
      "geometry": {
        "type": "Point",
        "coordinates": [
          -74.006,
          40.7128
        ]
      }
    },
    {
      "type": "Feature",
      "properties": {
        "LocationID": 47,
        "Zone": "Claremont/Bathgate",
        "Borough": "Bronx",
        "service_zone": "Boro Zone"
      },
      "geometry": {
        "type": "Point",
        "coordinates": [
          -74.006,
          40.7128
        ]
      }
    },
    {
      "type": "Feature",
      "properties": {
        "LocationID": 48,
        "Zone": "Clinton East",
        "Borough": "Manhattan",
        "service_zone": "Yellow Zone"
      },
      "geometry": {
        "type": "Point",
        "coordinates": [
          -74.006,
          40.7128
        ]
      }
    },
    {
      "type": "Feature",
      "properties": {
        "LocationID": 49,
        "Zone": "Clinton Hill",
        "Borough": "Brooklyn",
        "service_zone": "Boro Zone"
      },
      "geometry": {
        "type": "Point",
        "coordinates": [
          -74.006,
          40.7128
        ]
      }
    },
    {
      "type": "Feature",
      "properties": {
        "LocationID": 50,
        "Zone": "Clinton West",
        "Borough": "Manhattan",
        "service_zone": "Yellow Zone"
      },
      "geometry": {
        "type": "Point",
        "coordinates": [
          -74.006,
          40.7128
        ]
      }
    },
    {
      "type": "Feature",
      "properties": {
        "LocationID": 51,
        "Zone": "Co-Op City",
        "Borough": "Bronx",
        "service_zone": "Boro Zone"
      },
      "geometry": {
        "type": "Point",
        "coordinates": [
          -74.006,
          40.7128
        ]
      }
    },
    {
      "type": "Feature",
      "properties": {
        "LocationID": 52,
        "Zone": "Cobble Hill",
        "Borough": "Brooklyn",
        "service_zone": "Boro Zone"
      },
      "geometry": {
        "type": "Point",
        "coordinates": [
          -74.006,
          40.7128
        ]
      }
    },
    {
      "type": "Feature",
      "properties": {
        "LocationID": 53,
        "Zone": "College Point",
        "Borough": "Queens",
        "service_zone": "Boro Zone"
      },
      "geometry": {
        "type": "Point",
        "coordinates": [
          -74.006,
          40.7128
        ]
      }
    },
    {
      "type": "Feature",
      "properties": {
        "LocationID": 54,
        "Zone": "Columbia Street",
        "Borough": "Brooklyn",
        "service_zone": "Boro Zone"
      },
      "geometry": {
        "type": "Point",
        "coordinates": [
          -74.006,
          40.7128
        ]
      }
    },
    {
      "type": "Feature",
      "properties": {
        "LocationID": 55,
        "Zone": "Coney Island",
        "Borough": "Brooklyn",
        "service_zone": "Boro Zone"
      },
      "geometry": {
        "type": "Point",
        "coordinates": [
          -74.006,
          40.7128
        ]
      }
    },
    {
      "type": "Feature",
      "properties": {
        "LocationID": 56,
        "Zone": "Corona",
        "Borough": "Queens",
        "service_zone": "Boro Zone"
      },
      "geometry": {
        "type": "Point",
        "coordinates": [
          -74.006,
          40.7128
        ]
      }
    },
    {
      "type": "Feature",
      "properties": {
        "LocationID": 57,
        "Zone": "Corona",
        "Borough": "Queens",
        "service_zone": "Boro Zone"
      },
      "geometry": {
        "type": "Point",
        "coordinates": [
          -74.006,
          40.7128
        ]
      }
    },
    {
      "type": "Feature",
      "properties": {
        "LocationID": 58,
        "Zone": "Country Club",
        "Borough": "Bronx",
        "service_zone": "Boro Zone"
      },
      "geometry": {
        "type": "Point",
        "coordinates": [
          -74.006,
          40.7128
        ]
      }
    },
    {
      "type": "Feature",
      "properties": {
        "LocationID": 59,
        "Zone": "Crotona Park",
        "Borough": "Bronx",
        "service_zone": "Boro Zone"
      },
      "geometry": {
        "type": "Point",
        "coordinates": [
          -74.006,
          40.7128
        ]
      }
    },
    {
      "type": "Feature",
      "properties": {
        "LocationID": 60,
        "Zone": "Crotona Park East",
        "Borough": "Bronx",
        "service_zone": "Boro Zone"
      },
      "geometry": {
        "type": "Point",
        "coordinates": [
          -74.006,
          40.7128
        ]
      }
    },
    {
      "type": "Feature",
      "properties": {
        "LocationID": 61,
        "Zone": "Crown Heights North",
        "Borough": "Brooklyn",
        "service_zone": "Boro Zone"
      },
      "geometry": {
        "type": "Point",
        "coordinates": [
          -74.006,
          40.7128
        ]
      }
    },
    {
      "type": "Feature",
      "properties": {
        "LocationID": 62,
        "Zone": "Crown Heights South",
        "Borough": "Brooklyn",
        "service_zone": "Boro Zone"
      },
      "geometry": {
        "type": "Point",
        "coordinates": [
          -74.006,
          40.7128
        ]
      }
    },
    {
      "type": "Feature",
      "properties": {
        "LocationID": 63,
        "Zone": "Cypress Hills",
        "Borough": "Brooklyn",
        "service_zone": "Boro Zone"
      },
      "geometry": {
        "type": "Point",
        "coordinates": [
          -74.006,
          40.7128
        ]
      }
    },
    {
      "type": "Feature",
      "properties": {
        "LocationID": 64,
        "Zone": "Douglaston",
        "Borough": "Queens",
        "service_zone": "Boro Zone"
      },
      "geometry": {
        "type": "Point",
        "coordinates": [
          -74.006,
          40.7128
        ]
      }
    },
    {
      "type": "Feature",
      "properties": {
        "LocationID": 65,
        "Zone": "Downtown Brooklyn/MetroTech",
        "Borough": "Brooklyn",
        "service_zone": "Boro Zone"
      },
      "geometry": {
        "type": "Point",
        "coordinates": [
          -74.006,
          40.7128
        ]
      }
    },
    {
      "type": "Feature",
      "properties": {
        "LocationID": 66,
        "Zone": "DUMBO/Vinegar Hill",
        "Borough": "Brooklyn",
        "service_zone": "Boro Zone"
      },
      "geometry": {
        "type": "Point",
        "coordinates": [
          -74.006,
          40.7128
        ]
      }
    },
    {
      "type": "Feature",
      "properties": {
        "LocationID": 67,
        "Zone": "Dyker Heights",
        "Borough": "Brooklyn",
        "service_zone": "Boro Zone"
      },
      "geometry": {
        "type": "Point",
        "coordinates": [
          -74.006,
          40.7128
        ]
      }
    },
    {
      "type": "Feature",
      "properties": {
        "LocationID": 68,
        "Zone": "East Chelsea",
        "Borough": "Manhattan",
        "service_zone": "Yellow Zone"
      },
      "geometry": {
        "type": "Point",
        "coordinates": [
          -74.006,
          40.7128
        ]
      }
    },
    {
      "type": "Feature",
      "properties": {
        "LocationID": 69,
        "Zone": "East Concourse/Concourse Village",
        "Borough": "Bronx",
        "service_zone": "Boro Zone"
      },
      "geometry": {
        "type": "Point",
        "coordinates": [
          -74.006,
          40.7128
        ]
      }
    },
    {
      "type": "Feature",
      "properties": {
        "LocationID": 70,
        "Zone": "East Elmhurst",
        "Borough": "Queens",
        "service_zone": "Boro Zone"
      },
      "geometry": {
        "type": "Point",
        "coordinates": [
          -74.006,
          40.7128
        ]
      }
    },
    {
      "type": "Feature",
      "properties": {
        "LocationID": 71,
        "Zone": "East Flatbush/Farragut",
        "Borough": "Brooklyn",
        "service_zone": "Boro Zone"
      },
      "geometry": {
        "type": "Point",
        "coordinates": [
          -74.006,
          40.7128
        ]
      }
    },
    {
      "type": "Feature",
      "properties": {
        "LocationID": 72,
        "Zone": "East Flatbush/Remsen Village",
        "Borough": "Brooklyn",
        "service_zone": "Boro Zone"
      },
      "geometry": {
        "type": "Point",
        "coordinates": [
          -74.006,
          40.7128
        ]
      }
    },
    {
      "type": "Feature",
      "properties": {
        "LocationID": 73,
        "Zone": "East Flushing",
        "Borough": "Queens",
        "service_zone": "Boro Zone"
      },
      "geometry": {
        "type": "Point",
        "coordinates": [
          -74.006,
          40.7128
        ]
      }
    },
    {
      "type": "Feature",
      "properties": {
        "LocationID": 74,
        "Zone": "East Harlem North",
        "Borough": "Manhattan",
        "service_zone": "Boro Zone"
      },
      "geometry": {
        "type": "Point",
        "coordinates": [
          -74.006,
          40.7128
        ]
      }
    },
    {
      "type": "Feature",
      "properties": {
        "LocationID": 75,
        "Zone": "East Harlem South",
        "Borough": "Manhattan",
        "service_zone": "Boro Zone"
      },
      "geometry": {
        "type": "Point",
        "coordinates": [
          -74.006,
          40.7128
        ]
      }
    },
    {
      "type": "Feature",
      "properties": {
        "LocationID": 76,
        "Zone": "East New York",
        "Borough": "Brooklyn",
        "service_zone": "Boro Zone"
      },
      "geometry": {
        "type": "Point",
        "coordinates": [
          -74.006,
          40.7128
        ]
      }
    },
    {
      "type": "Feature",
      "properties": {
        "LocationID": 77,
        "Zone": "East New York/Pennsylvania Avenue",
        "Borough": "Brooklyn",
        "service_zone": "Boro Zone"
      },
      "geometry": {
        "type": "Point",
        "coordinates": [
          -74.006,
          40.7128
        ]
      }
    },
    {
      "type": "Feature",
      "properties": {
        "LocationID": 78,
        "Zone": "East Tremont",
        "Borough": "Bronx",
        "service_zone": "Boro Zone"
      },
      "geometry": {
        "type": "Point",
        "coordinates": [
          -74.006,
          40.7128
        ]
      }
    },
    {
      "type": "Feature",
      "properties": {
        "LocationID": 79,
        "Zone": "East Village",
        "Borough": "Manhattan",
        "service_zone": "Yellow Zone"
      },
      "geometry": {
        "type": "Point",
        "coordinates": [
          -74.006,
          40.7128
        ]
      }
    },
    {
      "type": "Feature",
      "properties": {
        "LocationID": 80,
        "Zone": "East Williamsburg",
        "Borough": "Brooklyn",
        "service_zone": "Boro Zone"
      },
      "geometry": {
        "type": "Point",
        "coordinates": [
          -74.006,
          40.7128
        ]
      }
    },
    {
      "type": "Feature",
      "properties": {
        "LocationID": 81,
        "Zone": "Eastchester",
        "Borough": "Bronx",
        "service_zone": "Boro Zone"
      },
      "geometry": {
        "type": "Point",
        "coordinates": [
          -74.006,
          40.7128
        ]
      }
    },
    {
      "type": "Feature",
      "properties": {
        "LocationID": 82,
        "Zone": "Elmhurst",
        "Borough": "Queens",
        "service_zone": "Boro Zone"
      },
      "geometry": {
        "type": "Point",
        "coordinates": [
          -74.006,
          40.7128
        ]
      }
    },
    {
      "type": "Feature",
      "properties": {
        "LocationID": 83,
        "Zone": "Elmhurst/Maspeth",
        "Borough": "Queens",
        "service_zone": "Boro Zone"
      },
      "geometry": {
        "type": "Point",
        "coordinates": [
          -74.006,
          40.7128
        ]
      }
    },
    {
      "type": "Feature",
      "properties": {
        "LocationID": 84,
        "Zone": "Eltingville/Annadale/Prince's Bay",
        "Borough": "Staten Island",
        "service_zone": "Boro Zone"
      },
      "geometry": {
        "type": "Point",
        "coordinates": [
          -74.006,
          40.7128
        ]
      }
    },
    {
      "type": "Feature",
      "properties": {
        "LocationID": 85,
        "Zone": "Erasmus",
        "Borough": "Brooklyn",
        "service_zone": "Boro Zone"
      },
      "geometry": {
        "type": "Point",
        "coordinates": [
          -74.006,
          40.7128
        ]
      }
    },
    {
      "type": "Feature",
      "properties": {
        "LocationID": 86,
        "Zone": "Far Rockaway",
        "Borough": "Queens",
        "service_zone": "Boro Zone"
      },
      "geometry": {
        "type": "Point",
        "coordinates": [
          -74.006,
          40.7128
        ]
      }
    },
    {
      "type": "Feature",
      "properties": {
        "LocationID": 87,
        "Zone": "Financial District North",
        "Borough": "Manhattan",
        "service_zone": "Yellow Zone"
      },
      "geometry": {
        "type": "Point",
        "coordinates": [
          -74.006,
          40.7128
        ]
      }
    },
    {
      "type": "Feature",
      "properties": {
        "LocationID": 88,
        "Zone": "Financial District South",
        "Borough": "Manhattan",
        "service_zone": "Yellow Zone"
      },
      "geometry": {
        "type": "Point",
        "coordinates": [
          -74.006,
          40.7128
        ]
      }
    },
    {
      "type": "Feature",
      "properties": {
        "LocationID": 89,
        "Zone": "Flatbush/Ditmas Park",
        "Borough": "Brooklyn",
        "service_zone": "Boro Zone"
      },
      "geometry": {
        "type": "Point",
        "coordinates": [
          -74.006,
          40.7128
        ]
      }
    },
    {
      "type": "Feature",
      "properties": {
        "LocationID": 90,
        "Zone": "Flatiron",
        "Borough": "Manhattan",
        "service_zone": "Yellow Zone"
      },
      "geometry": {
        "type": "Point",
        "coordinates": [
          -74.006,
          40.7128
        ]
      }
    },
    {
      "type": "Feature",
      "properties": {
        "LocationID": 91,
        "Zone": "Flatlands",
        "Borough": "Brooklyn",
        "service_zone": "Boro Zone"
      },
      "geometry": {
        "type": "Point",
        "coordinates": [
          -74.006,
          40.7128
        ]
      }
    },
    {
      "type": "Feature",
      "properties": {
        "LocationID": 92,
        "Zone": "Flushing",
        "Borough": "Queens",
        "service_zone": "Boro Zone"
      },
      "geometry": {
        "type": "Point",
        "coordinates": [
          -74.006,
          40.7128
        ]
      }
    },
    {
      "type": "Feature",
      "properties": {
        "LocationID": 93,
        "Zone": "Flushing Meadows-Corona Park",
        "Borough": "Queens",
        "service_zone": "Boro Zone"
      },
      "geometry": {
        "type": "Point",
        "coordinates": [
          -74.006,
          40.7128
        ]
      }
    },
    {
      "type": "Feature",
      "properties": {
        "LocationID": 94,
        "Zone": "Fordham South",
        "Borough": "Bronx",
        "service_zone": "Boro Zone"
      },
      "geometry": {
        "type": "Point",
        "coordinates": [
          -74.006,
          40.7128
        ]
      }
    },
    {
      "type": "Feature",
      "properties": {
        "LocationID": 95,
        "Zone": "Forest Hills",
        "Borough": "Queens",
        "service_zone": "Boro Zone"
      },
      "geometry": {
        "type": "Point",
        "coordinates": [
          -74.006,
          40.7128
        ]
      }
    },
    {
      "type": "Feature",
      "properties": {
        "LocationID": 96,
        "Zone": "Forest Park/Highland Park",
        "Borough": "Queens",
        "service_zone": "Boro Zone"
      },
      "geometry": {
        "type": "Point",
        "coordinates": [
          -74.006,
          40.7128
        ]
      }
    },
    {
      "type": "Feature",
      "properties": {
        "LocationID": 97,
        "Zone": "Fort Greene",
        "Borough": "Brooklyn",
        "service_zone": "Boro Zone"
      },
      "geometry": {
        "type": "Point",
        "coordinates": [
          -74.006,
          40.7128
        ]
      }
    },
    {
      "type": "Feature",
      "properties": {
        "LocationID": 98,
        "Zone": "Fresh Meadows",
        "Borough": "Queens",
        "service_zone": "Boro Zone"
      },
      "geometry": {
        "type": "Point",
        "coordinates": [
          -74.006,
          40.7128
        ]
      }
    },
    {
      "type": "Feature",
      "properties": {
        "LocationID": 99,
        "Zone": "Freshkills Park",
        "Borough": "Staten Island",
        "service_zone": "Boro Zone"
      },
      "geometry": {
        "type": "Point",
        "coordinates": [
          -74.006,
          40.7128
        ]
      }
    },
    {
      "type": "Feature",
      "properties": {
        "LocationID": 100,
        "Zone": "Garment District",
        "Borough": "Manhattan",
        "service_zone": "Yellow Zone"
      },
      "geometry": {
        "type": "Point",
        "coordinates": [
          -74.006,
          40.7128
        ]
      }
    },
    {
      "type": "Feature",
      "properties": {
        "LocationID": 101,
        "Zone": "Glen Oaks",
        "Borough": "Queens",
        "service_zone": "Boro Zone"
      },
      "geometry": {
        "type": "Point",
        "coordinates": [
          -74.006,
          40.7128
        ]
      }
    },
    {
      "type": "Feature",
      "properties": {
        "LocationID": 102,
        "Zone": "Glendale",
        "Borough": "Queens",
        "service_zone": "Boro Zone"
      },
      "geometry": {
        "type": "Point",
        "coordinates": [
          -74.006,
          40.7128
        ]
      }
    },
    {
      "type": "Feature",
      "properties": {
        "LocationID": 103,
        "Zone": "Governor's Island/Ellis Island/Liberty Island",
        "Borough": "Manhattan",
        "service_zone": "Yellow Zone"
      },
      "geometry": {
        "type": "Point",
        "coordinates": [
          -74.006,
          40.7128
        ]
      }
    },
    {
      "type": "Feature",
      "properties": {
        "LocationID": 104,
        "Zone": "Governor's Island/Ellis Island/Liberty Island",
        "Borough": "Manhattan",
        "service_zone": "Yellow Zone"
      },
      "geometry": {
        "type": "Point",
        "coordinates": [
          -74.006,
          40.7128
        ]
      }
    },
    {
      "type": "Feature",
      "properties": {
        "LocationID": 105,
        "Zone": "Governor's Island/Ellis Island/Liberty Island",
        "Borough": "Manhattan",
        "service_zone": "Yellow Zone"
      },
      "geometry": {
        "type": "Point",
        "coordinates": [
          -74.006,
          40.7128
        ]
      }
    },
    {
      "type": "Feature",
      "properties": {
        "LocationID": 106,
        "Zone": "Gowanus",
        "Borough": "Brooklyn",
        "service_zone": "Boro Zone"
      },
      "geometry": {
        "type": "Point",
        "coordinates": [
          -74.006,
          40.7128
        ]
      }
    },
    {
      "type": "Feature",
      "properties": {
        "LocationID": 107,
        "Zone": "Gramercy",
        "Borough": "Manhattan",
        "service_zone": "Yellow Zone"
      },
      "geometry": {
        "type": "Point",
        "coordinates": [
          -74.006,
          40.7128
        ]
      }
    },
    {
      "type": "Feature",
      "properties": {
        "LocationID": 108,
        "Zone": "Gravesend",
        "Borough": "Brooklyn",
        "service_zone": "Boro Zone"
      },
      "geometry": {
        "type": "Point",
        "coordinates": [
          -74.006,
          40.7128
        ]
      }
    },
    {
      "type": "Feature",
      "properties": {
        "LocationID": 109,
        "Zone": "Great Kills",
        "Borough": "Staten Island",
        "service_zone": "Boro Zone"
      },
      "geometry": {
        "type": "Point",
        "coordinates": [
          -74.006,
          40.7128
        ]
      }
    },
    {
      "type": "Feature",
      "properties": {
        "LocationID": 110,
        "Zone": "Great Kills Park",
        "Borough": "Staten Island",
        "service_zone": "Boro Zone"
      },
      "geometry": {
        "type": "Point",
        "coordinates": [
          -74.006,
          40.7128
        ]
      }
    },
    {
      "type": "Feature",
      "properties": {
        "LocationID": 111,
        "Zone": "Green-Wood Cemetery",
        "Borough": "Brooklyn",
        "service_zone": "Boro Zone"
      },
      "geometry": {
        "type": "Point",
        "coordinates": [
          -74.006,
          40.7128
        ]
      }
    },
    {
      "type": "Feature",
      "properties": {
        "LocationID": 112,
        "Zone": "Greenpoint",
        "Borough": "Brooklyn",
        "service_zone": "Boro Zone"
      },
      "geometry": {
        "type": "Point",
        "coordinates": [
          -74.006,
          40.7128
        ]
      }
    },
    {
      "type": "Feature",
      "properties": {
        "LocationID": 113,
        "Zone": "Greenwich Village North",
        "Borough": "Manhattan",
        "service_zone": "Yellow Zone"
      },
      "geometry": {
        "type": "Point",
        "coordinates": [
          -74.006,
          40.7128
        ]
      }
    },
    {
      "type": "Feature",
      "properties": {
        "LocationID": 114,
        "Zone": "Greenwich Village South",
        "Borough": "Manhattan",
        "service_zone": "Yellow Zone"
      },
      "geometry": {
        "type": "Point",
        "coordinates": [
          -74.006,
          40.7128
        ]
      }
    },
    {
      "type": "Feature",
      "properties": {
        "LocationID": 115,
        "Zone": "Grymes Hill/Clifton",
        "Borough": "Staten Island",
        "service_zone": "Boro Zone"
      },
      "geometry": {
        "type": "Point",
        "coordinates": [
          -74.006,
          40.7128
        ]
      }
    },
    {
      "type": "Feature",
      "properties": {
        "LocationID": 116,
        "Zone": "Hamilton Heights",
        "Borough": "Manhattan",
        "service_zone": "Boro Zone"
      },
      "geometry": {
        "type": "Point",
        "coordinates": [
          -74.006,
          40.7128
        ]
      }
    },
    {
      "type": "Feature",
      "properties": {
        "LocationID": 117,
        "Zone": "Hammels/Arverne",
        "Borough": "Queens",
        "service_zone": "Boro Zone"
      },
      "geometry": {
        "type": "Point",
        "coordinates": [
          -74.006,
          40.7128
        ]
      }
    },
    {
      "type": "Feature",
      "properties": {
        "LocationID": 118,
        "Zone": "Heartland Village/Todt Hill",
        "Borough": "Staten Island",
        "service_zone": "Boro Zone"
      },
      "geometry": {
        "type": "Point",
        "coordinates": [
          -74.006,
          40.7128
        ]
      }
    },
    {
      "type": "Feature",
      "properties": {
        "LocationID": 119,
        "Zone": "Highbridge",
        "Borough": "Bronx",
        "service_zone": "Boro Zone"
      },
      "geometry": {
        "type": "Point",
        "coordinates": [
          -74.006,
          40.7128
        ]
      }
    },
    {
      "type": "Feature",
      "properties": {
        "LocationID": 120,
        "Zone": "Highbridge Park",
        "Borough": "Manhattan",
        "service_zone": "Boro Zone"
      },
      "geometry": {
        "type": "Point",
        "coordinates": [
          -74.006,
          40.7128
        ]
      }
    },
    {
      "type": "Feature",
      "properties": {
        "LocationID": 121,
        "Zone": "Hillcrest/Pomonok",
        "Borough": "Queens",
        "service_zone": "Boro Zone"
      },
      "geometry": {
        "type": "Point",
        "coordinates": [
          -74.006,
          40.7128
        ]
      }
    },
    {
      "type": "Feature",
      "properties": {
        "LocationID": 122,
        "Zone": "Hollis",
        "Borough": "Queens",
        "service_zone": "Boro Zone"
      },
      "geometry": {
        "type": "Point",
        "coordinates": [
          -74.006,
          40.7128
        ]
      }
    },
    {
      "type": "Feature",
      "properties": {
        "LocationID": 123,
        "Zone": "Homecrest",
        "Borough": "Brooklyn",
        "service_zone": "Boro Zone"
      },
      "geometry": {
        "type": "Point",
        "coordinates": [
          -74.006,
          40.7128
        ]
      }
    },
    {
      "type": "Feature",
      "properties": {
        "LocationID": 124,
        "Zone": "Howard Beach",
        "Borough": "Queens",
        "service_zone": "Boro Zone"
      },
      "geometry": {
        "type": "Point",
        "coordinates": [
          -74.006,
          40.7128
        ]
      }
    },
    {
      "type": "Feature",
      "properties": {
        "LocationID": 125,
        "Zone": "Hudson Sq",
        "Borough": "Manhattan",
        "service_zone": "Yellow Zone"
      },
      "geometry": {
        "type": "Point",
        "coordinates": [
          -74.006,
          40.7128
        ]
      }
    },
    {
      "type": "Feature",
      "properties": {
        "LocationID": 126,
        "Zone": "Hunts Point",
        "Borough": "Bronx",
        "service_zone": "Boro Zone"
      },
      "geometry": {
        "type": "Point",
        "coordinates": [
          -74.006,
          40.7128
        ]
      }
    },
    {
      "type": "Feature",
      "properties": {
        "LocationID": 127,
        "Zone": "Inwood",
        "Borough": "Manhattan",
        "service_zone": "Boro Zone"
      },
      "geometry": {
        "type": "Point",
        "coordinates": [
          -74.006,
          40.7128
        ]
      }
    },
    {
      "type": "Feature",
      "properties": {
        "LocationID": 128,
        "Zone": "Inwood Hill Park",
        "Borough": "Manhattan",
        "service_zone": "Boro Zone"
      },
      "geometry": {
        "type": "Point",
        "coordinates": [
          -74.006,
          40.7128
        ]
      }
    },
    {
      "type": "Feature",
      "properties": {
        "LocationID": 129,
        "Zone": "Jackson Heights",
        "Borough": "Queens",
        "service_zone": "Boro Zone"
      },
      "geometry": {
        "type": "Point",
        "coordinates": [
          -74.006,
          40.7128
        ]
      }
    },
    {
      "type": "Feature",
      "properties": {
        "LocationID": 130,
        "Zone": "Jamaica",
        "Borough": "Queens",
        "service_zone": "Boro Zone"
      },
      "geometry": {
        "type": "Point",
        "coordinates": [
          -74.006,
          40.7128
        ]
      }
    },
    {
      "type": "Feature",
      "properties": {
        "LocationID": 131,
        "Zone": "Jamaica Estates",
        "Borough": "Queens",
        "service_zone": "Boro Zone"
      },
      "geometry": {
        "type": "Point",
        "coordinates": [
          -74.006,
          40.7128
        ]
      }
    },
    {
      "type": "Feature",
      "properties": {
        "LocationID": 132,
        "Zone": "JFK Airport",
        "Borough": "Queens",
        "service_zone": "Airports"
      },
      "geometry": {
        "type": "Point",
        "coordinates": [
          -74.006,
          40.7128
        ]
      }
    },
    {
      "type": "Feature",
      "properties": {
        "LocationID": 133,
        "Zone": "Kensington",
        "Borough": "Brooklyn",
        "service_zone": "Boro Zone"
      },
      "geometry": {
        "type": "Point",
        "coordinates": [
          -74.006,
          40.7128
        ]
      }
    },
    {
      "type": "Feature",
      "properties": {
        "LocationID": 134,
        "Zone": "Kew Gardens",
        "Borough": "Queens",
        "service_zone": "Boro Zone"
      },
      "geometry": {
        "type": "Point",
        "coordinates": [
          -74.006,
          40.7128
        ]
      }
    },
    {
      "type": "Feature",
      "properties": {
        "LocationID": 135,
        "Zone": "Kew Gardens Hills",
        "Borough": "Queens",
        "service_zone": "Boro Zone"
      },
      "geometry": {
        "type": "Point",
        "coordinates": [
          -74.006,
          40.7128
        ]
      }
    },
    {
      "type": "Feature",
      "properties": {
        "LocationID": 136,
        "Zone": "Kingsbridge Heights",
        "Borough": "Bronx",
        "service_zone": "Boro Zone"
      },
      "geometry": {
        "type": "Point",
        "coordinates": [
          -74.006,
          40.7128
        ]
      }
    },
    {
      "type": "Feature",
      "properties": {
        "LocationID": 137,
        "Zone": "Kips Bay",
        "Borough": "Manhattan",
        "service_zone": "Yellow Zone"
      },
      "geometry": {
        "type": "Point",
        "coordinates": [
          -74.006,
          40.7128
        ]
      }
    },
    {
      "type": "Feature",
      "properties": {
        "LocationID": 138,
        "Zone": "LaGuardia Airport",
        "Borough": "Queens",
        "service_zone": "Airports"
      },
      "geometry": {
        "type": "Point",
        "coordinates": [
          -74.006,
          40.7128
        ]
      }
    },
    {
      "type": "Feature",
      "properties": {
        "LocationID": 139,
        "Zone": "Laurelton",
        "Borough": "Queens",
        "service_zone": "Boro Zone"
      },
      "geometry": {
        "type": "Point",
        "coordinates": [
          -74.006,
          40.7128
        ]
      }
    },
    {
      "type": "Feature",
      "properties": {
        "LocationID": 140,
        "Zone": "Lenox Hill East",
        "Borough": "Manhattan",
        "service_zone": "Yellow Zone"
      },
      "geometry": {
        "type": "Point",
        "coordinates": [
          -74.006,
          40.7128
        ]
      }
    },
    {
      "type": "Feature",
      "properties": {
        "LocationID": 141,
        "Zone": "Lenox Hill West",
        "Borough": "Manhattan",
        "service_zone": "Yellow Zone"
      },
      "geometry": {
        "type": "Point",
        "coordinates": [
          -74.006,
          40.7128
        ]
      }
    },
    {
      "type": "Feature",
      "properties": {
        "LocationID": 142,
        "Zone": "Lincoln Square East",
        "Borough": "Manhattan",
        "service_zone": "Yellow Zone"
      },
      "geometry": {
        "type": "Point",
        "coordinates": [
          -74.006,
          40.7128
        ]
      }
    },
    {
      "type": "Feature",
      "properties": {
        "LocationID": 143,
        "Zone": "Lincoln Square West",
        "Borough": "Manhattan",
        "service_zone": "Yellow Zone"
      },
      "geometry": {
        "type": "Point",
        "coordinates": [
          -74.006,
          40.7128
        ]
      }
    },
    {
      "type": "Feature",
      "properties": {
        "LocationID": 144,
        "Zone": "Little Italy/NoLiTa",
        "Borough": "Manhattan",
        "service_zone": "Yellow Zone"
      },
      "geometry": {
        "type": "Point",
        "coordinates": [
          -74.006,
          40.7128
        ]
      }
    },
    {
      "type": "Feature",
      "properties": {
        "LocationID": 145,
        "Zone": "Long Island City/Hunters Point",
        "Borough": "Queens",
        "service_zone": "Boro Zone"
      },
      "geometry": {
        "type": "Point",
        "coordinates": [
          -74.006,
          40.7128
        ]
      }
    },
    {
      "type": "Feature",
      "properties": {
        "LocationID": 146,
        "Zone": "Long Island City/Queens Plaza",
        "Borough": "Queens",
        "service_zone": "Boro Zone"
      },
      "geometry": {
        "type": "Point",
        "coordinates": [
          -74.006,
          40.7128
        ]
      }
    },
    {
      "type": "Feature",
      "properties": {
        "LocationID": 147,
        "Zone": "Longwood",
        "Borough": "Bronx",
        "service_zone": "Boro Zone"
      },
      "geometry": {
        "type": "Point",
        "coordinates": [
          -74.006,
          40.7128
        ]
      }
    },
    {
      "type": "Feature",
      "properties": {
        "LocationID": 148,
        "Zone": "Lower East Side",
        "Borough": "Manhattan",
        "service_zone": "Yellow Zone"
      },
      "geometry": {
        "type": "Point",
        "coordinates": [
          -74.006,
          40.7128
        ]
      }
    },
    {
      "type": "Feature",
      "properties": {
        "LocationID": 149,
        "Zone": "Madison",
        "Borough": "Brooklyn",
        "service_zone": "Boro Zone"
      },
      "geometry": {
        "type": "Point",
        "coordinates": [
          -74.006,
          40.7128
        ]
      }
    },
    {
      "type": "Feature",
      "properties": {
        "LocationID": 150,
        "Zone": "Manhattan Beach",
        "Borough": "Brooklyn",
        "service_zone": "Boro Zone"
      },
      "geometry": {
        "type": "Point",
        "coordinates": [
          -74.006,
          40.7128
        ]
      }
    },
    {
      "type": "Feature",
      "properties": {
        "LocationID": 151,
        "Zone": "Manhattan Valley",
        "Borough": "Manhattan",
        "service_zone": "Yellow Zone"
      },
      "geometry": {
        "type": "Point",
        "coordinates": [
          -74.006,
          40.7128
        ]
      }
    },
    {
      "type": "Feature",
      "properties": {
        "LocationID": 152,
        "Zone": "Manhattanville",
        "Borough": "Manhattan",
        "service_zone": "Boro Zone"
      },
      "geometry": {
        "type": "Point",
        "coordinates": [
          -74.006,
          40.7128
        ]
      }
    },
    {
      "type": "Feature",
      "properties": {
        "LocationID": 153,
        "Zone": "Marble Hill",
        "Borough": "Manhattan",
        "service_zone": "Boro Zone"
      },
      "geometry": {
        "type": "Point",
        "coordinates": [
          -74.006,
          40.7128
        ]
      }
    },
    {
      "type": "Feature",
      "properties": {
        "LocationID": 154,
        "Zone": "Marine Park/Floyd Bennett Field",
        "Borough": "Brooklyn",
        "service_zone": "Boro Zone"
      },
      "geometry": {
        "type": "Point",
        "coordinates": [
          -74.006,
          40.7128
        ]
      }
    },
    {
      "type": "Feature",
      "properties": {
        "LocationID": 155,
        "Zone": "Marine Park/Mill Basin",
        "Borough": "Brooklyn",
        "service_zone": "Boro Zone"
      },
      "geometry": {
        "type": "Point",
        "coordinates": [
          -74.006,
          40.7128
        ]
      }
    },
    {
      "type": "Feature",
      "properties": {
        "LocationID": 156,
        "Zone": "Mariners Harbor",
        "Borough": "Staten Island",
        "service_zone": "Boro Zone"
      },
      "geometry": {
        "type": "Point",
        "coordinates": [
          -74.006,
          40.7128
        ]
      }
    },
    {
      "type": "Feature",
      "properties": {
        "LocationID": 157,
        "Zone": "Maspeth",
        "Borough": "Queens",
        "service_zone": "Boro Zone"
      },
      "geometry": {
        "type": "Point",
        "coordinates": [
          -74.006,
          40.7128
        ]
      }
    },
    {
      "type": "Feature",
      "properties": {
        "LocationID": 158,
        "Zone": "Meatpacking/West Village West",
        "Borough": "Manhattan",
        "service_zone": "Yellow Zone"
      },
      "geometry": {
        "type": "Point",
        "coordinates": [
          -74.006,
          40.7128
        ]
      }
    },
    {
      "type": "Feature",
      "properties": {
        "LocationID": 159,
        "Zone": "Melrose South",
        "Borough": "Bronx",
        "service_zone": "Boro Zone"
      },
      "geometry": {
        "type": "Point",
        "coordinates": [
          -74.006,
          40.7128
        ]
      }
    },
    {
      "type": "Feature",
      "properties": {
        "LocationID": 160,
        "Zone": "Middle Village",
        "Borough": "Queens",
        "service_zone": "Boro Zone"
      },
      "geometry": {
        "type": "Point",
        "coordinates": [
          -74.006,
          40.7128
        ]
      }
    },
    {
      "type": "Feature",
      "properties": {
        "LocationID": 161,
        "Zone": "Midtown Center",
        "Borough": "Manhattan",
        "service_zone": "Yellow Zone"
      },
      "geometry": {
        "type": "Point",
        "coordinates": [
          -74.006,
          40.7128
        ]
      }
    },
    {
      "type": "Feature",
      "properties": {
        "LocationID": 162,
        "Zone": "Midtown East",
        "Borough": "Manhattan",
        "service_zone": "Yellow Zone"
      },
      "geometry": {
        "type": "Point",
        "coordinates": [
          -74.006,
          40.7128
        ]
      }
    },
    {
      "type": "Feature",
      "properties": {
        "LocationID": 163,
        "Zone": "Midtown North",
        "Borough": "Manhattan",
        "service_zone": "Yellow Zone"
      },
      "geometry": {
        "type": "Point",
        "coordinates": [
          -74.006,
          40.7128
        ]
      }
    },
    {
      "type": "Feature",
      "properties": {
        "LocationID": 164,
        "Zone": "Midtown South",
        "Borough": "Manhattan",
        "service_zone": "Yellow Zone"
      },
      "geometry": {
        "type": "Point",
        "coordinates": [
          -74.006,
          40.7128
        ]
      }
    },
    {
      "type": "Feature",
      "properties": {
        "LocationID": 165,
        "Zone": "Midwood",
        "Borough": "Brooklyn",
        "service_zone": "Boro Zone"
      },
      "geometry": {
        "type": "Point",
        "coordinates": [
          -74.006,
          40.7128
        ]
      }
    },
    {
      "type": "Feature",
      "properties": {
        "LocationID": 166,
        "Zone": "Morningside Heights",
        "Borough": "Manhattan",
        "service_zone": "Boro Zone"
      },
      "geometry": {
        "type": "Point",
        "coordinates": [
          -74.006,
          40.7128
        ]
      }
    },
    {
      "type": "Feature",
      "properties": {
        "LocationID": 167,
        "Zone": "Morrisania/Melrose",
        "Borough": "Bronx",
        "service_zone": "Boro Zone"
      },
      "geometry": {
        "type": "Point",
        "coordinates": [
          -74.006,
          40.7128
        ]
      }
    },
    {
      "type": "Feature",
      "properties": {
        "LocationID": 168,
        "Zone": "Mott Haven/Port Morris",
        "Borough": "Bronx",
        "service_zone": "Boro Zone"
      },
      "geometry": {
        "type": "Point",
        "coordinates": [
          -74.006,
          40.7128
        ]
      }
    },
    {
      "type": "Feature",
      "properties": {
        "LocationID": 169,
        "Zone": "Mount Hope",
        "Borough": "Bronx",
        "service_zone": "Boro Zone"
      },
      "geometry": {
        "type": "Point",
        "coordinates": [
          -74.006,
          40.7128
        ]
      }
    },
    {
      "type": "Feature",
      "properties": {
        "LocationID": 170,
        "Zone": "Murray Hill",
        "Borough": "Manhattan",
        "service_zone": "Yellow Zone"
      },
      "geometry": {
        "type": "Point",
        "coordinates": [
          -74.006,
          40.7128
        ]
      }
    },
    {
      "type": "Feature",
      "properties": {
        "LocationID": 171,
        "Zone": "Murray Hill-Queens",
        "Borough": "Queens",
        "service_zone": "Boro Zone"
      },
      "geometry": {
        "type": "Point",
        "coordinates": [
          -74.006,
          40.7128
        ]
      }
    },
    {
      "type": "Feature",
      "properties": {
        "LocationID": 172,
        "Zone": "New Dorp/Midland Beach",
        "Borough": "Staten Island",
        "service_zone": "Boro Zone"
      },
      "geometry": {
        "type": "Point",
        "coordinates": [
          -74.006,
          40.7128
        ]
      }
    },
    {
      "type": "Feature",
      "properties": {
        "LocationID": 173,
        "Zone": "North Corona",
        "Borough": "Queens",
        "service_zone": "Boro Zone"
      },
      "geometry": {
        "type": "Point",
        "coordinates": [
          -74.006,
          40.7128
        ]
      }
    },
    {
      "type": "Feature",
      "properties": {
        "LocationID": 174,
        "Zone": "Norwood",
        "Borough": "Bronx",
        "service_zone": "Boro Zone"
      },
      "geometry": {
        "type": "Point",
        "coordinates": [
          -74.006,
          40.7128
        ]
      }
    },
    {
      "type": "Feature",
      "properties": {
        "LocationID": 175,
        "Zone": "Oakland Gardens",
        "Borough": "Queens",
        "service_zone": "Boro Zone"
      },
      "geometry": {
        "type": "Point",
        "coordinates": [
          -74.006,
          40.7128
        ]
      }
    },
    {
      "type": "Feature",
      "properties": {
        "LocationID": 176,
        "Zone": "Oakwood",
        "Borough": "Staten Island",
        "service_zone": "Boro Zone"
      },
      "geometry": {
        "type": "Point",
        "coordinates": [
          -74.006,
          40.7128
        ]
      }
    },
    {
      "type": "Feature",
      "properties": {
        "LocationID": 177,
        "Zone": "Ocean Hill",
        "Borough": "Brooklyn",
        "service_zone": "Boro Zone"
      },
      "geometry": {
        "type": "Point",
        "coordinates": [
          -74.006,
          40.7128
        ]
      }
    },
    {
      "type": "Feature",
      "properties": {
        "LocationID": 178,
        "Zone": "Ocean Parkway South",
        "Borough": "Brooklyn",
        "service_zone": "Boro Zone"
      },
      "geometry": {
        "type": "Point",
        "coordinates": [
          -74.006,
          40.7128
        ]
      }
    },
    {
      "type": "Feature",
      "properties": {
        "LocationID": 179,
        "Zone": "Old Astoria",
        "Borough": "Queens",
        "service_zone": "Boro Zone"
      },
      "geometry": {
        "type": "Point",
        "coordinates": [
          -74.006,
          40.7128
        ]
      }
    },
    {
      "type": "Feature",
      "properties": {
        "LocationID": 180,
        "Zone": "Ozone Park",
        "Borough": "Queens",
        "service_zone": "Boro Zone"
      },
      "geometry": {
        "type": "Point",
        "coordinates": [
          -74.006,
          40.7128
        ]
      }
    },
    {
      "type": "Feature",
      "properties": {
        "LocationID": 181,
        "Zone": "Park Slope",
        "Borough": "Brooklyn",
        "service_zone": "Boro Zone"
      },
      "geometry": {
        "type": "Point",
        "coordinates": [
          -74.006,
          40.7128
        ]
      }
    },
    {
      "type": "Feature",
      "properties": {
        "LocationID": 182,
        "Zone": "Parkchester",
        "Borough": "Bronx",
        "service_zone": "Boro Zone"
      },
      "geometry": {
        "type": "Point",
        "coordinates": [
          -74.006,
          40.7128
        ]
      }
    },
    {
      "type": "Feature",
      "properties": {
        "LocationID": 183,
        "Zone": "Pelham Bay",
        "Borough": "Bronx",
        "service_zone": "Boro Zone"
      },
      "geometry": {
        "type": "Point",
        "coordinates": [
          -74.006,
          40.7128
        ]
      }
    },
    {
      "type": "Feature",
      "properties": {
        "LocationID": 184,
        "Zone": "Pelham Bay Park",
        "Borough": "Bronx",
        "service_zone": "Boro Zone"
      },
      "geometry": {
        "type": "Point",
        "coordinates": [
          -74.006,
          40.7128
        ]
      }
    },
    {
      "type": "Feature",
      "properties": {
        "LocationID": 185,
        "Zone": "Pelham Parkway",
        "Borough": "Bronx",
        "service_zone": "Boro Zone"
      },
      "geometry": {
        "type": "Point",
        "coordinates": [
          -74.006,
          40.7128
        ]
      }
    },
    {
      "type": "Feature",
      "properties": {
        "LocationID": 186,
        "Zone": "Penn Station/Madison Sq West",
        "Borough": "Manhattan",
        "service_zone": "Yellow Zone"
      },
      "geometry": {
        "type": "Point",
        "coordinates": [
          -74.006,
          40.7128
        ]
      }
    },
    {
      "type": "Feature",
      "properties": {
        "LocationID": 187,
        "Zone": "Port Richmond",
        "Borough": "Staten Island",
        "service_zone": "Boro Zone"
      },
      "geometry": {
        "type": "Point",
        "coordinates": [
          -74.006,
          40.7128
        ]
      }
    },
    {
      "type": "Feature",
      "properties": {
        "LocationID": 188,
        "Zone": "Prospect-Lefferts Gardens",
        "Borough": "Brooklyn",
        "service_zone": "Boro Zone"
      },
      "geometry": {
        "type": "Point",
        "coordinates": [
          -74.006,
          40.7128
        ]
      }
    },
    {
      "type": "Feature",
      "properties": {
        "LocationID": 189,
        "Zone": "Prospect Heights",
        "Borough": "Brooklyn",
        "service_zone": "Boro Zone"
      },
      "geometry": {
        "type": "Point",
        "coordinates": [
          -74.006,
          40.7128
        ]
      }
    },
    {
      "type": "Feature",
      "properties": {
        "LocationID": 190,
        "Zone": "Prospect Park",
        "Borough": "Brooklyn",
        "service_zone": "Boro Zone"
      },
      "geometry": {
        "type": "Point",
        "coordinates": [
          -74.006,
          40.7128
        ]
      }
    },
    {
      "type": "Feature",
      "properties": {
        "LocationID": 191,
        "Zone": "Queens Village",
        "Borough": "Queens",
        "service_zone": "Boro Zone"
      },
      "geometry": {
        "type": "Point",
        "coordinates": [
          -74.006,
          40.7128
        ]
      }
    },
    {
      "type": "Feature",
      "properties": {
        "LocationID": 192,
        "Zone": "Queensboro Hill",
        "Borough": "Queens",
        "service_zone": "Boro Zone"
      },
      "geometry": {
        "type": "Point",
        "coordinates": [
          -74.006,
          40.7128
        ]
      }
    },
    {
      "type": "Feature",
      "properties": {
        "LocationID": 193,
        "Zone": "Queensbridge/Ravenswood",
        "Borough": "Queens",
        "service_zone": "Boro Zone"
      },
      "geometry": {
        "type": "Point",
        "coordinates": [
          -74.006,
          40.7128
        ]
      }
    },
    {
      "type": "Feature",
      "properties": {
        "LocationID": 194,
        "Zone": "Randalls Island",
        "Borough": "Manhattan",
        "service_zone": "Yellow Zone"
      },
      "geometry": {
        "type": "Point",
        "coordinates": [
          -74.006,
          40.7128
        ]
      }
    },
    {
      "type": "Feature",
      "properties": {
        "LocationID": 195,
        "Zone": "Red Hook",
        "Borough": "Brooklyn",
        "service_zone": "Boro Zone"
      },
      "geometry": {
        "type": "Point",
        "coordinates": [
          -74.006,
          40.7128
        ]
      }
    },
    {
      "type": "Feature",
      "properties": {
        "LocationID": 196,
        "Zone": "Rego Park",
        "Borough": "Queens",
        "service_zone": "Boro Zone"
      },
      "geometry": {
        "type": "Point",
        "coordinates": [
          -74.006,
          40.7128
        ]
      }
    },
    {
      "type": "Feature",
      "properties": {
        "LocationID": 197,
        "Zone": "Richmond Hill",
        "Borough": "Queens",
        "service_zone": "Boro Zone"
      },
      "geometry": {
        "type": "Point",
        "coordinates": [
          -74.006,
          40.7128
        ]
      }
    },
    {
      "type": "Feature",
      "properties": {
        "LocationID": 198,
        "Zone": "Ridgewood",
        "Borough": "Queens",
        "service_zone": "Boro Zone"
      },
      "geometry": {
        "type": "Point",
        "coordinates": [
          -74.006,
          40.7128
        ]
      }
    },
    {
      "type": "Feature",
      "properties": {
        "LocationID": 199,
        "Zone": "Rikers Island",
        "Borough": "Bronx",
        "service_zone": "Boro Zone"
      },
      "geometry": {
        "type": "Point",
        "coordinates": [
          -74.006,
          40.7128
        ]
      }
    },
    {
      "type": "Feature",
      "properties": {
        "LocationID": 200,
        "Zone": "Riverdale/North Riverdale/Fieldston",
        "Borough": "Bronx",
        "service_zone": "Boro Zone"
      },
      "geometry": {
        "type": "Point",
        "coordinates": [
          -74.006,
          40.7128
        ]
      }
    },
    {
      "type": "Feature",
      "properties": {
        "LocationID": 201,
        "Zone": "Rockaway Park",
        "Borough": "Queens",
        "service_zone": "Boro Zone"
      },
      "geometry": {
        "type": "Point",
        "coordinates": [
          -74.006,
          40.7128
        ]
      }
    },
    {
      "type": "Feature",
      "properties": {
        "LocationID": 202,
        "Zone": "Roosevelt Island",
        "Borough": "Manhattan",
        "service_zone": "Boro Zone"
      },
      "geometry": {
        "type": "Point",
        "coordinates": [
          -74.006,
          40.7128
        ]
      }
    },
    {
      "type": "Feature",
      "properties": {
        "LocationID": 203,
        "Zone": "Rosedale",
        "Borough": "Queens",
        "service_zone": "Boro Zone"
      },
      "geometry": {
        "type": "Point",
        "coordinates": [
          -74.006,
          40.7128
        ]
      }
    },
    {
      "type": "Feature",
      "properties": {
        "LocationID": 204,
        "Zone": "Rossville/Woodrow",
        "Borough": "Staten Island",
        "service_zone": "Boro Zone"
      },
      "geometry": {
        "type": "Point",
        "coordinates": [
          -74.006,
          40.7128
        ]
      }
    },
    {
      "type": "Feature",
      "properties": {
        "LocationID": 205,
        "Zone": "Saint Albans",
        "Borough": "Queens",
        "service_zone": "Boro Zone"
      },
      "geometry": {
        "type": "Point",
        "coordinates": [
          -74.006,
          40.7128
        ]
      }
    },
    {
      "type": "Feature",
      "properties": {
        "LocationID": 206,
        "Zone": "Saint George/New Brighton",
        "Borough": "Staten Island",
        "service_zone": "Boro Zone"
      },
      "geometry": {
        "type": "Point",
        "coordinates": [
          -74.006,
          40.7128
        ]
      }
    },
    {
      "type": "Feature",
      "properties": {
        "LocationID": 207,
        "Zone": "Saint Michaels Cemetery/Woodside",
        "Borough": "Queens",
        "service_zone": "Boro Zone"
      },
      "geometry": {
        "type": "Point",
        "coordinates": [
          -74.006,
          40.7128
        ]
      }
    },
    {
      "type": "Feature",
      "properties": {
        "LocationID": 208,
        "Zone": "Schuylerville/Edgewater Park",
        "Borough": "Bronx",
        "service_zone": "Boro Zone"
      },
      "geometry": {
        "type": "Point",
        "coordinates": [
          -74.006,
          40.7128
        ]
      }
    },
    {
      "type": "Feature",
      "properties": {
        "LocationID": 209,
        "Zone": "Seaport",
        "Borough": "Manhattan",
        "service_zone": "Yellow Zone"
      },
      "geometry": {
        "type": "Point",
        "coordinates": [
          -74.006,
          40.7128
        ]
      }
    },
    {
      "type": "Feature",
      "properties": {
        "LocationID": 210,
        "Zone": "Sheepshead Bay",
        "Borough": "Brooklyn",
        "service_zone": "Boro Zone"
      },
      "geometry": {
        "type": "Point",
        "coordinates": [
          -74.006,
          40.7128
        ]
      }
    },
    {
      "type": "Feature",
      "properties": {
        "LocationID": 211,
        "Zone": "SoHo",
        "Borough": "Manhattan",
        "service_zone": "Yellow Zone"
      },
      "geometry": {
        "type": "Point",
        "coordinates": [
          -74.006,
          40.7128
        ]
      }
    },
    {
      "type": "Feature",
      "properties": {
        "LocationID": 212,
        "Zone": "Soundview/Bruckner",
        "Borough": "Bronx",
        "service_zone": "Boro Zone"
      },
      "geometry": {
        "type": "Point",
        "coordinates": [
          -74.006,
          40.7128
        ]
      }
    },
    {
      "type": "Feature",
      "properties": {
        "LocationID": 213,
        "Zone": "Soundview/Castle Hill",
        "Borough": "Bronx",
        "service_zone": "Boro Zone"
      },
      "geometry": {
        "type": "Point",
        "coordinates": [
          -74.006,
          40.7128
        ]
      }
    },
    {
      "type": "Feature",
      "properties": {
        "LocationID": 214,
        "Zone": "South Beach/Dongan Hills",
        "Borough": "Staten Island",
        "service_zone": "Boro Zone"
      },
      "geometry": {
        "type": "Point",
        "coordinates": [
          -74.006,
          40.7128
        ]
      }
    },
    {
      "type": "Feature",
      "properties": {
        "LocationID": 215,
        "Zone": "South Jamaica",
        "Borough": "Queens",
        "service_zone": "Boro Zone"
      },
      "geometry": {
        "type": "Point",
        "coordinates": [
          -74.006,
          40.7128
        ]
      }
    },
    {
      "type": "Feature",
      "properties": {
        "LocationID": 216,
        "Zone": "South Ozone Park",
        "Borough": "Queens",
        "service_zone": "Boro Zone"
      },
      "geometry": {
        "type": "Point",
        "coordinates": [
          -74.006,
          40.7128
        ]
      }
    },
    {
      "type": "Feature",
      "properties": {
        "LocationID": 217,
        "Zone": "South Williamsburg",
        "Borough": "Brooklyn",
        "service_zone": "Boro Zone"
      },
      "geometry": {
        "type": "Point",
        "coordinates": [
          -74.006,
          40.7128
        ]
      }
    },
    {
      "type": "Feature",
      "properties": {
        "LocationID": 218,
        "Zone": "Springfield Gardens North",
        "Borough": "Queens",
        "service_zone": "Boro Zone"
      },
      "geometry": {
        "type": "Point",
        "coordinates": [
          -74.006,
          40.7128
        ]
      }
    },
    {
      "type": "Feature",
      "properties": {
        "LocationID": 219,
        "Zone": "Springfield Gardens South",
        "Borough": "Queens",
        "service_zone": "Boro Zone"
      },
      "geometry": {
        "type": "Point",
        "coordinates": [
          -74.006,
          40.7128
        ]
      }
    },
    {
      "type": "Feature",
      "properties": {
        "LocationID": 220,
        "Zone": "Spuyten Duyvil/Kingsbridge",
        "Borough": "Bronx",
        "service_zone": "Boro Zone"
      },
      "geometry": {
        "type": "Point",
        "coordinates": [
          -74.006,
          40.7128
        ]
      }
    },
    {
      "type": "Feature",
      "properties": {
        "LocationID": 221,
        "Zone": "Stapleton",
        "Borough": "Staten Island",
        "service_zone": "Boro Zone"
      },
      "geometry": {
        "type": "Point",
        "coordinates": [
          -74.006,
          40.7128
        ]
      }
    },
    {
      "type": "Feature",
      "properties": {
        "LocationID": 222,
        "Zone": "Starrett City",
        "Borough": "Brooklyn",
        "service_zone": "Boro Zone"
      },
      "geometry": {
        "type": "Point",
        "coordinates": [
          -74.006,
          40.7128
        ]
      }
    },
    {
      "type": "Feature",
      "properties": {
        "LocationID": 223,
        "Zone": "Steinway",
        "Borough": "Queens",
        "service_zone": "Boro Zone"
      },
      "geometry": {
        "type": "Point",
        "coordinates": [
          -74.006,
          40.7128
        ]
      }
    },
    {
      "type": "Feature",
      "properties": {
        "LocationID": 224,
        "Zone": "Stuy Town/Peter Cooper Village",
        "Borough": "Manhattan",
        "service_zone": "Yellow Zone"
      },
      "geometry": {
        "type": "Point",
        "coordinates": [
          -74.006,
          40.7128
        ]
      }
    },
    {
      "type": "Feature",
      "properties": {
        "LocationID": 225,
        "Zone": "Stuyvesant Heights",
        "Borough": "Brooklyn",
        "service_zone": "Boro Zone"
      },
      "geometry": {
        "type": "Point",
        "coordinates": [
          -74.006,
          40.7128
        ]
      }
    },
    {
      "type": "Feature",
      "properties": {
        "LocationID": 226,
        "Zone": "Sunnyside",
        "Borough": "Queens",
        "service_zone": "Boro Zone"
      },
      "geometry": {
        "type": "Point",
        "coordinates": [
          -74.006,
          40.7128
        ]
      }
    },
    {
      "type": "Feature",
      "properties": {
        "LocationID": 227,
        "Zone": "Sunset Park East",
        "Borough": "Brooklyn",
        "service_zone": "Boro Zone"
      },
      "geometry": {
        "type": "Point",
        "coordinates": [
          -74.006,
          40.7128
        ]
      }
    },
    {
      "type": "Feature",
      "properties": {
        "LocationID": 228,
        "Zone": "Sunset Park West",
        "Borough": "Brooklyn",
        "service_zone": "Boro Zone"
      },
      "geometry": {
        "type": "Point",
        "coordinates": [
          -74.006,
          40.7128
        ]
      }
    },
    {
      "type": "Feature",
      "properties": {
        "LocationID": 229,
        "Zone": "Sutton Place/Turtle Bay North",
        "Borough": "Manhattan",
        "service_zone": "Yellow Zone"
      },
      "geometry": {
        "type": "Point",
        "coordinates": [
          -74.006,
          40.7128
        ]
      }
    },
    {
      "type": "Feature",
      "properties": {
        "LocationID": 230,
        "Zone": "Times Sq/Theatre District",
        "Borough": "Manhattan",
        "service_zone": "Yellow Zone"
      },
      "geometry": {
        "type": "Point",
        "coordinates": [
          -74.006,
          40.7128
        ]
      }
    },
    {
      "type": "Feature",
      "properties": {
        "LocationID": 231,
        "Zone": "TriBeCa/Civic Center",
        "Borough": "Manhattan",
        "service_zone": "Yellow Zone"
      },
      "geometry": {
        "type": "Point",
        "coordinates": [
          -74.006,
          40.7128
        ]
      }
    },
    {
      "type": "Feature",
      "properties": {
        "LocationID": 232,
        "Zone": "Two Bridges/Seward Park",
        "Borough": "Manhattan",
        "service_zone": "Yellow Zone"
      },
      "geometry": {
        "type": "Point",
        "coordinates": [
          -74.006,
          40.7128
        ]
      }
    },
    {
      "type": "Feature",
      "properties": {
        "LocationID": 233,
        "Zone": "UN/Turtle Bay South",
        "Borough": "Manhattan",
        "service_zone": "Yellow Zone"
      },
      "geometry": {
        "type": "Point",
        "coordinates": [
          -74.006,
          40.7128
        ]
      }
    },
    {
      "type": "Feature",
      "properties": {
        "LocationID": 234,
        "Zone": "Union Sq",
        "Borough": "Manhattan",
        "service_zone": "Yellow Zone"
      },
      "geometry": {
        "type": "Point",
        "coordinates": [
          -74.006,
          40.7128
        ]
      }
    },
    {
      "type": "Feature",
      "properties": {
        "LocationID": 235,
        "Zone": "University Heights/Morris Heights",
        "Borough": "Bronx",
        "service_zone": "Boro Zone"
      },
      "geometry": {
        "type": "Point",
        "coordinates": [
          -74.006,
          40.7128
        ]
      }
    },
    {
      "type": "Feature",
      "properties": {
        "LocationID": 236,
        "Zone": "Upper East Side North",
        "Borough": "Manhattan",
        "service_zone": "Yellow Zone"
      },
      "geometry": {
        "type": "Point",
        "coordinates": [
          -74.006,
          40.7128
        ]
      }
    },
    {
      "type": "Feature",
      "properties": {
        "LocationID": 237,
        "Zone": "Upper East Side South",
        "Borough": "Manhattan",
        "service_zone": "Yellow Zone"
      },
      "geometry": {
        "type": "Point",
        "coordinates": [
          -74.006,
          40.7128
        ]
      }
    },
    {
      "type": "Feature",
      "properties": {
        "LocationID": 238,
        "Zone": "Upper West Side North",
        "Borough": "Manhattan",
        "service_zone": "Yellow Zone"
      },
      "geometry": {
        "type": "Point",
        "coordinates": [
          -74.006,
          40.7128
        ]
      }
    },
    {
      "type": "Feature",
      "properties": {
        "LocationID": 239,
        "Zone": "Upper West Side South",
        "Borough": "Manhattan",
        "service_zone": "Yellow Zone"
      },
      "geometry": {
        "type": "Point",
        "coordinates": [
          -74.006,
          40.7128
        ]
      }
    },
    {
      "type": "Feature",
      "properties": {
        "LocationID": 240,
        "Zone": "Van Cortlandt Park",
        "Borough": "Bronx",
        "service_zone": "Boro Zone"
      },
      "geometry": {
        "type": "Point",
        "coordinates": [
          -74.006,
          40.7128
        ]
      }
    },
    {
      "type": "Feature",
      "properties": {
        "LocationID": 241,
        "Zone": "Van Cortlandt Village",
        "Borough": "Bronx",
        "service_zone": "Boro Zone"
      },
      "geometry": {
        "type": "Point",
        "coordinates": [
          -74.006,
          40.7128
        ]
      }
    },
    {
      "type": "Feature",
      "properties": {
        "LocationID": 242,
        "Zone": "Van Nest/Morris Park",
        "Borough": "Bronx",
        "service_zone": "Boro Zone"
      },
      "geometry": {
        "type": "Point",
        "coordinates": [
          -74.006,
          40.7128
        ]
      }
    },
    {
      "type": "Feature",
      "properties": {
        "LocationID": 243,
        "Zone": "Washington Heights North",
        "Borough": "Manhattan",
        "service_zone": "Boro Zone"
      },
      "geometry": {
        "type": "Point",
        "coordinates": [
          -74.006,
          40.7128
        ]
      }
    },
    {
      "type": "Feature",
      "properties": {
        "LocationID": 244,
        "Zone": "Washington Heights South",
        "Borough": "Manhattan",
        "service_zone": "Boro Zone"
      },
      "geometry": {
        "type": "Point",
        "coordinates": [
          -74.006,
          40.7128
        ]
      }
    },
    {
      "type": "Feature",
      "properties": {
        "LocationID": 245,
        "Zone": "West Brighton",
        "Borough": "Staten Island",
        "service_zone": "Boro Zone"
      },
      "geometry": {
        "type": "Point",
        "coordinates": [
          -74.006,
          40.7128
        ]
      }
    },
    {
      "type": "Feature",
      "properties": {
        "LocationID": 246,
        "Zone": "West Chelsea/Hudson Yards",
        "Borough": "Manhattan",
        "service_zone": "Yellow Zone"
      },
      "geometry": {
        "type": "Point",
        "coordinates": [
          -74.006,
          40.7128
        ]
      }
    },
    {
      "type": "Feature",
      "properties": {
        "LocationID": 247,
        "Zone": "West Concourse",
        "Borough": "Bronx",
        "service_zone": "Boro Zone"
      },
      "geometry": {
        "type": "Point",
        "coordinates": [
          -74.006,
          40.7128
        ]
      }
    },
    {
      "type": "Feature",
      "properties": {
        "LocationID": 248,
        "Zone": "West Farms/Bronx River",
        "Borough": "Bronx",
        "service_zone": "Boro Zone"
      },
      "geometry": {
        "type": "Point",
        "coordinates": [
          -74.006,
          40.7128
        ]
      }
    },
    {
      "type": "Feature",
      "properties": {
        "LocationID": 249,
        "Zone": "West Village",
        "Borough": "Manhattan",
        "service_zone": "Yellow Zone"
      },
      "geometry": {
        "type": "Point",
        "coordinates": [
          -74.006,
          40.7128
        ]
      }
    },
    {
      "type": "Feature",
      "properties": {
        "LocationID": 250,
        "Zone": "Westchester Village/Unionport",
        "Borough": "Bronx",
        "service_zone": "Boro Zone"
      },
      "geometry": {
        "type": "Point",
        "coordinates": [
          -74.006,
          40.7128
        ]
      }
    },
    {
      "type": "Feature",
      "properties": {
        "LocationID": 251,
        "Zone": "Westerleigh",
        "Borough": "Staten Island",
        "service_zone": "Boro Zone"
      },
      "geometry": {
        "type": "Point",
        "coordinates": [
          -74.006,
          40.7128
        ]
      }
    },
    {
      "type": "Feature",
      "properties": {
        "LocationID": 252,
        "Zone": "Whitestone",
        "Borough": "Queens",
        "service_zone": "Boro Zone"
      },
      "geometry": {
        "type": "Point",
        "coordinates": [
          -74.006,
          40.7128
        ]
      }
    },
    {
      "type": "Feature",
      "properties": {
        "LocationID": 253,
        "Zone": "Willets Point",
        "Borough": "Queens",
        "service_zone": "Boro Zone"
      },
      "geometry": {
        "type": "Point",
        "coordinates": [
          -74.006,
          40.7128
        ]
      }
    },
    {
      "type": "Feature",
      "properties": {
        "LocationID": 254,
        "Zone": "Williamsbridge/Olinville",
        "Borough": "Bronx",
        "service_zone": "Boro Zone"
      },
      "geometry": {
        "type": "Point",
        "coordinates": [
          -74.006,
          40.7128
        ]
      }
    },
    {
      "type": "Feature",
      "properties": {
        "LocationID": 255,
        "Zone": "Williamsburg (North Side)",
        "Borough": "Brooklyn",
        "service_zone": "Boro Zone"
      },
      "geometry": {
        "type": "Point",
        "coordinates": [
          -74.006,
          40.7128
        ]
      }
    },
    {
      "type": "Feature",
      "properties": {
        "LocationID": 256,
        "Zone": "Williamsburg (South Side)",
        "Borough": "Brooklyn",
        "service_zone": "Boro Zone"
      },
      "geometry": {
        "type": "Point",
        "coordinates": [
          -74.006,
          40.7128
        ]
      }
    },
    {
      "type": "Feature",
      "properties": {
        "LocationID": 257,
        "Zone": "Windsor Terrace",
        "Borough": "Brooklyn",
        "service_zone": "Boro Zone"
      },
      "geometry": {
        "type": "Point",
        "coordinates": [
          -74.006,
          40.7128
        ]
      }
    },
    {
      "type": "Feature",
      "properties": {
        "LocationID": 258,
        "Zone": "Woodhaven",
        "Borough": "Queens",
        "service_zone": "Boro Zone"
      },
      "geometry": {
        "type": "Point",
        "coordinates": [
          -74.006,
          40.7128
        ]
      }
    },
    {
      "type": "Feature",
      "properties": {
        "LocationID": 259,
        "Zone": "Woodlawn/Wakefield",
        "Borough": "Bronx",
        "service_zone": "Boro Zone"
      },
      "geometry": {
        "type": "Point",
        "coordinates": [
          -74.006,
          40.7128
        ]
      }
    },
    {
      "type": "Feature",
      "properties": {
        "LocationID": 260,
        "Zone": "Woodside",
        "Borough": "Queens",
        "service_zone": "Boro Zone"
      },
      "geometry": {
        "type": "Point",
        "coordinates": [
          -74.006,
          40.7128
        ]
      }
    },
    {
      "type": "Feature",
      "properties": {
        "LocationID": 261,
        "Zone": "World Trade Center",
        "Borough": "Manhattan",
        "service_zone": "Yellow Zone"
      },
      "geometry": {
        "type": "Point",
        "coordinates": [
          -74.006,
          40.7128
        ]
      }
    },
    {
      "type": "Feature",
      "properties": {
        "LocationID": 262,
        "Zone": "Yorkville East",
        "Borough": "Manhattan",
        "service_zone": "Yellow Zone"
      },
      "geometry": {
        "type": "Point",
        "coordinates": [
          -74.006,
          40.7128
        ]
      }
    },
    {
      "type": "Feature",
      "properties": {
        "LocationID": 263,
        "Zone": "Yorkville West",
        "Borough": "Manhattan",
        "service_zone": "Yellow Zone"
      },
      "geometry": {
        "type": "Point",
        "coordinates": [
          -74.006,
          40.7128
        ]
      }
    },
    {
      "type": "Feature",
      "properties": {
        "LocationID": 264,
        "Zone": "NV",
        "Borough": "Unknown",
        "service_zone": "N/A"
      },
      "geometry": {
        "type": "Point",
        "coordinates": [
          -74.006,
          40.7128
        ]
      }
    },
    {
      "type": "Feature",
      "properties": {
        "LocationID": 265,
        "Zone": "NA",
        "Borough": "Unknown",
        "service_zone": "N/A"
      },
      "geometry": {
        "type": "Point",
        "coordinates": [
          -74.006,
          40.7128
        ]
      }
    }
  ]
}